{"type": "FeatureCollection", "features": [ {"type": "Feature", "properties": {"norad_id": 66458, "name": "STARLINK-35684", "group": "last-30-days", "lat": 32.63345751792399, "lon": -100.03272064675645, "alt_km": 388.52012693722736, "timestamp": "2025-12-03T19:33:05.756010+00:00", "meta": {"OBJECT_NAME": "STARLINK-35684", "OBJECT_ID": "2025-262C", "EPOCH": "2025-12-03T12:00:02.998944", "MEAN_MOTION": 15.5972351, "ECCENTRICITY": 0.0001325, "INCLINATION": 42.9995, "RA_OF_ASC_NODE": 125.24, "ARG_OF_PERICENTER": 269.5966, "MEAN_ANOMALY": 250.232, "EPHEMERIS_TYPE": 0, "CLASSIFICATION_TYPE": "U", "NORAD_CAT_ID": 66458, "ELEMENT_SET_NO": 999, "REV_AT_EPOCH": 415, "BSTAR": -0.029473, "MEAN_MOTION_DOT": -0.02151744, "MEAN_MOTION_DDOT": 0}, "tle": {"line1": "1 66458U 25262C   25337.50003471 -.02151744  00000+0 -29473-1 0  9997", "line2": "2 66458  42.9995 125.2400 0001325 269.5966 250.2320 15.59723510  4159"}}, "geometry": {"type": "Point", "coordinates": [-100.03272064675645, 32.63345751792399]}}, {"type": "Feature", "properties": {"norad_id": 66459, "name": "STARLINK-35449", "group": "last-30-days", "lat": 30.67081156047354, "lon": -96.16192609459802, "alt_km": 388.776512151986, "timestamp": "2025-12-03T19:33:05.756020+00:00", "meta": {"OBJECT_NAME": "STARLINK-35449", "OBJECT_ID": "2025-262D", "EPOCH": "2025-12-03T12:00:02.998944", "MEAN_MOTION": 15.59724815, "ECCENTRICITY": 0.0001148, "INCLINATION": 42.9995, "RA_OF_ASC_NODE": 125.2302, "ARG_OF_PERICENTER": 275.7281, "MEAN_ANOMALY": 247.9361, "EPHEMERIS_TYPE": 0, "CLASSIFICATION_TYPE": "U", "NORAD_CAT_ID": 66459, "ELEMENT_SET_NO": 999, "REV_AT_EPOCH": 415, "BSTAR": -0.029526, "MEAN_MOTION_DOT": -0.02155129, "MEAN_MOTION_DDOT": 0}, "tle": {"line1": "1 66459U 25262D   25337.50003471 -.02155129  00000+0 -29526-1 0  9998", "line2": "2 66459  42.9995 125.2302 0001148 275.7281 247.9361 15.59724815  4150"}}, "geometry": {"type": "Point", "coordinates": [-96.16192609459802, 30.67081156047354]}}, {"type": "Feature", "properties": {"norad_id": 66460, "name": "STARLINK-35424", "group": "last-30-days", "lat": 29.64872153398348, "lon": -94.28930747512817, "alt_km": 388.8096900554965, "timestamp": "2025-12-03T19:33:05.756030+00:00", "meta": {"OBJECT_NAME": "STARLINK-35424", "OBJECT_ID": "2025-262E", "EPOCH": "2025-12-03T12:00:02.998944", "MEAN_MOTION": 15.59719899, "ECCENTRICITY": 0.0001026, "INCLINATION": 42.9997, "RA_OF_ASC_NODE": 125.2252, "ARG_OF_PERICENTER": 271.9227, "MEAN_ANOMALY": 253.66, "EPHEMERIS_TYPE": 0, "CLASSIFICATION_TYPE": "U", "NORAD_CAT_ID": 66460, "ELEMENT_SET_NO": 999, "REV_AT_EPOCH": 415, "BSTAR": -0.029395, "MEAN_MOTION_DOT": -0.02146237, "MEAN_MOTION_DDOT": 0}, "tle": {"line1": "1 66460U 25262E   25337.50003471 -.02146237  00000+0 -29395-1 0  9994", "line2": "2 66460  42.9997 125.2252 0001026 271.9227 253.6600 15.59719899  4157"}}, "geometry": {"type": "Point", "coordinates": [-94.28930747512817, 29.64872153398348]}}, {"type": "Feature", "properties": {"norad_id": 66461, "name": "STARLINK-35132", "group": "last-30-days", "lat": 28.60095921467145, "lon": -92.45534907262879, "alt_km": 388.9942281868325, "timestamp": "2025-12-03T19:33:05.756042+00:00", "meta": {"OBJECT_NAME": "STARLINK-35132", "OBJECT_ID": "2025-262F", "EPOCH": "2025-12-03T12:00:02.998944", "MEAN_MOTION": 15.59723484, "ECCENTRICITY": 0.0001069, "INCLINATION": 42.9997, "RA_OF_ASC_NODE": 125.2205, "ARG_OF_PERICENTER": 273.1375, "MEAN_ANOMALY": 254.3585, "EPHEMERIS_TYPE": 0, "CLASSIFICATION_TYPE": "U", "NORAD_CAT_ID": 66461, "ELEMENT_SET_NO": 999, "REV_AT_EPOCH": 415, "BSTAR": -0.029438, "MEAN_MOTION_DOT": -0.021493, "MEAN_MOTION_DDOT": 0}, "tle": {"line1": "1 66461U 25262F   25337.50003471 -.02149300  00000+0 -29438-1 0  9997", "line2": "2 66461  42.9997 125.2205 0001069 273.1375 254.3585 15.59723484  4156"}}, "geometry": {"type": "Point", "coordinates": [-92.45534907262879, 28.60095921467145]}}, {"type": "Feature", "properties": {"norad_id": 66462, "name": "STARLINK-35499", "group": "last-30-days", "lat": 27.528677930090804, "lon": -90.65804304099969, "alt_km": 389.1310614540589, "timestamp": "2025-12-03T19:33:05.756065+00:00", "meta": {"OBJECT_NAME": "STARLINK-35499", "OBJECT_ID": "2025-262G", "EPOCH": "2025-12-03T12:00:02.998944", "MEAN_MOTION": 15.59719224, "ECCENTRICITY": 0.0001096, "INCLINATION": 42.9997, "RA_OF_ASC_NODE": 125.2155, "ARG_OF_PERICENTER": 270.6423, "MEAN_ANOMALY": 258.7737, "EPHEMERIS_TYPE": 0, "CLASSIFICATION_TYPE": "U", "NORAD_CAT_ID": 66462, "ELEMENT_SET_NO": 999, "REV_AT_EPOCH": 415, "BSTAR": -0.029369, "MEAN_MOTION_DOT": -0.02144527, "MEAN_MOTION_DDOT": 0}, "tle": {"line1": "1 66462U 25262G   25337.50003471 -.02144527  00000+0 -29369-1 0  9997", "line2": "2 66462  42.9997 125.2155 0001096 270.6423 258.7737 15.59719224  4151"}}, "geometry": {"type": "Point", "coordinates": [-90.65804304099969, 27.528677930090804]}}, {"type": "Feature", "properties": {"norad_id": 66463, "name": "STARLINK-35463", "group": "last-30-days", "lat": 25.318105256609094, "lon": -87.16872203183337, "alt_km": 389.5619533562358, "timestamp": "2025-12-03T19:33:05.756076+00:00", "meta": {"OBJECT_NAME": "STARLINK-35463", "OBJECT_ID": "2025-262H", "EPOCH": "2025-12-03T12:00:02.998944", "MEAN_MOTION": 15.59719378, "ECCENTRICITY": 0.0001307, "INCLINATION": 42.9997, "RA_OF_ASC_NODE": 125.2055, "ARG_OF_PERICENTER": 271.7889, "MEAN_ANOMALY": 261.4609, "EPHEMERIS_TYPE": 0, "CLASSIFICATION_TYPE": "U", "NORAD_CAT_ID": 66463, "ELEMENT_SET_NO": 999, "REV_AT_EPOCH": 415, "BSTAR": -0.029399, "MEAN_MOTION_DOT": -0.02146609, "MEAN_MOTION_DDOT": 0}, "tle": {"line1": "1 66463U 25262H   25337.50003471 -.02146609  00000+0 -29399-1 0  9994", "line2": "2 66463  42.9997 125.2055 0001307 271.7889 261.4609 15.59719378  4153"}}, "geometry": {"type": "Point", "coordinates": [-87.16872203183337, 25.318105256609094]}}, {"type": "Feature", "properties": {"norad_id": 66464, "name": "STARLINK-35435", "group": "last-30-days", "lat": 26.43344553057288, "lon": -88.89556665696408, "alt_km": 389.3849811447335, "timestamp": "2025-12-03T19:33:05.756088+00:00", "meta": {"OBJECT_NAME": "STARLINK-35435", "OBJECT_ID": "2025-262J", "EPOCH": "2025-12-03T12:00:02.998944", "MEAN_MOTION": 15.59720949, "ECCENTRICITY": 0.0001143, "INCLINATION": 42.9997, "RA_OF_ASC_NODE": 125.2106, "ARG_OF_PERICENTER": 276.4878, "MEAN_ANOMALY": 254.8426, "EPHEMERIS_TYPE": 0, "CLASSIFICATION_TYPE": "U", "NORAD_CAT_ID": 66464, "ELEMENT_SET_NO": 999, "REV_AT_EPOCH": 415, "BSTAR": -0.029389, "MEAN_MOTION_DOT": -0.02146003, "MEAN_MOTION_DDOT": 0}, "tle": {"line1": "1 66464U 25262J   25337.50003471 -.02146003  00000+0 -29389-1 0  9992", "line2": "2 66464  42.9997 125.2106 0001143 276.4878 254.8426 15.59720949  4158"}}, "geometry": {"type": "Point", "coordinates": [-88.89556665696408, 26.43344553057288]}}, {"type": "Feature", "properties": {"norad_id": 66465, "name": "STARLINK-35448", "group": "last-30-days", "lat": 23.02541586995465, "lon": -83.80247410348603, "alt_km": 389.6758698546364, "timestamp": "2025-12-03T19:33:05.756100+00:00", "meta": {"OBJECT_NAME": "STARLINK-35448", "OBJECT_ID": "2025-262K", "EPOCH": "2025-12-03T12:00:02.998944", "MEAN_MOTION": 15.59714299, "ECCENTRICITY": 0.0001109, "INCLINATION": 42.9998, "RA_OF_ASC_NODE": 125.1964, "ARG_OF_PERICENTER": 264.3055, "MEAN_ANOMALY": 272.7828, "EPHEMERIS_TYPE": 0, "CLASSIFICATION_TYPE": "U", "NORAD_CAT_ID": 66465, "ELEMENT_SET_NO": 999, "REV_AT_EPOCH": 415, "BSTAR": -0.029303, "MEAN_MOTION_DOT": -0.02139909, "MEAN_MOTION_DDOT": 0}, "tle": {"line1": "1 66465U 25262K   25337.50003471 -.02139909  00000+0 -29303-1 0  9996", "line2": "2 66465  42.9998 125.1964 0001109 264.3055 272.7828 15.59714299  4152"}}, "geometry": {"type": "Point", "coordinates": [-83.80247410348603, 23.02541586995465]}}, {"type": "Feature", "properties": {"norad_id": 66466, "name": "STARLINK-35388", "group": "last-30-days", "lat": 21.855130489843937, "lon": -82.16848054907211, "alt_km": 389.9053726188504, "timestamp": "2025-12-03T19:33:05.756110+00:00", "meta": {"OBJECT_NAME": "STARLINK-35388", "OBJECT_ID": "2025-262L", "EPOCH": "2025-12-03T12:00:02.998944", "MEAN_MOTION": 15.59712558, "ECCENTRICITY": 0.0001193, "INCLINATION": 42.9997, "RA_OF_ASC_NODE": 125.1903, "ARG_OF_PERICENTER": 267.3661, "MEAN_ANOMALY": 271.6348, "EPHEMERIS_TYPE": 0, "CLASSIFICATION_TYPE": "U", "NORAD_CAT_ID": 66466, "ELEMENT_SET_NO": 999, "REV_AT_EPOCH": 415, "BSTAR": -0.029188, "MEAN_MOTION_DOT": -0.02132364, "MEAN_MOTION_DDOT": 0}, "tle": {"line1": "1 66466U 25262L   25337.50003471 -.02132364  00000+0 -29188-1 0  9996", "line2": "2 66466  42.9997 125.1903 0001193 267.3661 271.6348 15.59712558  4155"}}, "geometry": {"type": "Point", "coordinates": [-82.16848054907211, 21.855130489843937]}}, {"type": "Feature", "properties": {"norad_id": 66467, "name": "STARLINK-35682", "group": "last-30-days", "lat": 24.18194836955177, "lon": -85.4717701753021, "alt_km": 389.6249058249341, "timestamp": "2025-12-03T19:33:05.756121+00:00", "meta": {"OBJECT_NAME": "STARLINK-35682", "OBJECT_ID": "2025-262M", "EPOCH": "2025-12-03T12:00:02.998944", "MEAN_MOTION": 15.59720349, "ECCENTRICITY": 0.0001346, "INCLINATION": 42.9997, "RA_OF_ASC_NODE": 125.201, "ARG_OF_PERICENTER": 265.3139, "MEAN_ANOMALY": 269.8539, "EPHEMERIS_TYPE": 0, "CLASSIFICATION_TYPE": "U", "NORAD_CAT_ID": 66467, "ELEMENT_SET_NO": 999, "REV_AT_EPOCH": 415, "BSTAR": -0.029427, "MEAN_MOTION_DOT": -0.0214855, "MEAN_MOTION_DDOT": 0}, "tle": {"line1": "1 66467U 25262M   25337.50003471 -.02148550  00000+0 -29427-1 0  9997", "line2": "2 66467  42.9997 125.2010 0001346 265.3139 269.8539 15.59720349  4152"}}, "geometry": {"type": "Point", "coordinates": [-85.4717701753021, 24.18194836955177]}}]}